{
  "type": "FeatureCollection",
  "features": [
    {
      "type": "Feature",
      "properties": {
        "norad_id": 50032,
        "name": "COSMOS 1408 DEB",
        "group": "cosmos-1408-debris",
        "lat": -73.06535101625859,
        "lon": 24.783743743645715,
        "alt_km": 439.62509826027417,
        "timestamp": "2025-12-20T20:38:44.713201+00:00",
        "meta_object_name": "COSMOS 1408 DEB",
        "meta_object_id": "1982-092RU",
        "meta_epoch": "2025-12-20T14:45:17.706528",
        "meta_mean_motion": 15.45767226,
        "meta_eccentricity": 0.00160149,
        "meta_inclination": 82.5637,
        "meta_ra_of_asc_node": 50.4376,
        "meta_arg_of_pericenter": 179.1551,
        "meta_mean_anomaly": 180.9729,
        "meta_ephemeris_type": 0,
        "meta_classification_type": "U",
        "meta_norad_cat_id": 50032,
        "meta_element_set_no": 999,
        "meta_rev_at_epoch": 22725,
        "meta_bstar": 7.5967077e-05,
        "meta_mean_motion_dot": 3.734e-05,
        "meta_mean_motion_ddot": 0,
        "tle_line1": "1 50032U 82092RU  25354.61478827  .00003734  00000+0  75967-4 0  9997",
        "tle_line2": "2 50032  82.5637  50.4376 0016014 179.1551 180.9729 15.45767226227258"
      },
      "geometry": {
        "type": "Point",
        "coordinates": [
          24.783743743645715,
          -73.06535101625859
        ]
      }
    },
    {
      "type": "Feature",
      "properties": {
        "norad_id": 50058,
        "name": "COSMOS 1408 DEB",
        "group": "cosmos-1408-debris",
        "lat": -49.552531469649146,
        "lon": 52.08626848955571,
        "alt_km": 387.05913618181785,
        "timestamp": "2025-12-20T20:38:44.713222+00:00",
        "meta_object_name": "COSMOS 1408 DEB",
        "meta_object_id": "1982-092SW",
        "meta_epoch": "2025-12-20T11:38:58.794144",
        "meta_mean_motion": 15.64543293,
        "meta_eccentricity": 0.00161504,
        "meta_inclination": 82.6128,
        "meta_ra_of_asc_node": 61.2329,
        "meta_arg_of_pericenter": 72.3269,
        "meta_mean_anomaly": 287.9752,
        "meta_ephemeris_type": 0,
        "meta_classification_type": "U",
        "meta_norad_cat_id": 50058,
        "meta_element_set_no": 999,
        "meta_rev_at_epoch": 22925,
        "meta_bstar": 0.00024420793,
        "meta_mean_motion_dot": 0.0002374,
        "meta_mean_motion_ddot": 0,
        "tle_line1": "1 50058U 82092SW  25354.48540271  .00023740  00000+0  24421-3 0  9990",
        "tle_line2": "2 50058  82.6128  61.2329 0016150  72.3269 287.9752 15.64543293229254"
      },
      "geometry": {
        "type": "Point",
        "coordinates": [
          52.08626848955571,
          -49.552531469649146
        ]
      }
    },
    {
      "type": "Feature",
      "properties": {
        "norad_id": 50404,
        "name": "COSMOS 1408 DEB",
        "group": "cosmos-1408-debris",
        "lat": 41.148397966316104,
        "lon": -146.412526362499,
        "alt_km": 590.5905460129625,
        "timestamp": "2025-12-20T20:38:44.713236+00:00",
        "meta_object_name": "COSMOS 1408 DEB",
        "meta_object_id": "1982-092ADS",
        "meta_epoch": "2025-12-20T14:06:59.040576",
        "meta_mean_motion": 15.14934617,
        "meta_eccentricity": 0.01688909,
        "meta_inclination": 82.2054,
        "meta_ra_of_asc_node": 206.9916,
        "meta_arg_of_pericenter": 172.0207,
        "meta_mean_anomaly": 188.3778,
        "meta_ephemeris_type": 0,
        "meta_classification_type": "U",
        "meta_norad_cat_id": 50404,
        "meta_element_set_no": 999,
        "meta_rev_at_epoch": 21312,
        "meta_bstar": 0.0021441671,
        "meta_mean_motion_dot": 0.00057748,
        "meta_mean_motion_ddot": 0,
        "tle_line1": "1 50404U 82092ADS 25354.58818334  .00057748  00000+0  21442-2 0  9998",
        "tle_line2": "2 50404  82.2054 206.9916 0168890 172.0207 188.3778 15.14934617213122"
      },
      "geometry": {
        "type": "Point",
        "coordinates": [
          -146.412526362499,
          41.148397966316104
        ]
      }
    },
    {
      "type": "Feature",
      "properties": {
        "norad_id": 50621,
        "name": "COSMOS 1408 DEB",
        "group": "cosmos-1408-debris",
        "lat": 70.35484689842416,
        "lon": -135.71882980950835,
        "alt_km": 370.35620715802906,
        "timestamp": "2025-12-20T20:38:44.713247+00:00",
        "meta_object_name": "COSMOS 1408 DEB",
        "meta_object_id": "1982-092ALR",
        "meta_epoch": "2025-12-20T10:55:44.896800",
        "meta_mean_motion": 15.57036715,
        "meta_eccentricity": 0.00290845,
        "meta_inclination": 82.5699,
        "meta_ra_of_asc_node": 66.1468,
        "meta_arg_of_pericenter": 124.5175,
        "meta_mean_anomaly": 235.8832,
        "meta_ephemeris_type": 0,
        "meta_classification_type": "U",
        "meta_norad_cat_id": 50621,
        "meta_element_set_no": 999,
        "meta_rev_at_epoch": 22370,
        "meta_bstar": 0.00027044295,
        "meta_mean_motion_dot": 0.00019984,
        "meta_mean_motion_ddot": 0,
        "tle_line1": "1 50621U 82092ALR 25354.45538075  .00019984  00000+0  27044-3 0  9991",
        "tle_line2": "2 50621  82.5699  66.1468 0029084 124.5175 235.8832 15.57036715223709"
      },
      "geometry": {
        "type": "Point",
        "coordinates": [
          -135.71882980950835,
          70.35484689842416
        ]
      }
    }
  ]
}